IRIDIUM 119             
1 42959U 17061E   24168.51077125  .00000156  00000+0  48808-4 0  9996
2 42959  86.3966 330.5985 0001906  95.7051 264.4362 14.34217338350084
IRIDIUM 107             
1 42960U 17061F   24168.52979408  .00000309  00000+0  10318-3 0  9998
2 42960  86.3967 330.6073 0002072  97.8372 262.3059 14.34216884350096
IRIDIUM 132             
1 42961U 17061G   24168.53614246 -.00000116  00000+0 -48475-4 0  9990
2 42961  86.3963 330.5894 0002119 100.8713 259.2721 14.34217013350095
IRIDIUM 136             
1 42962U 17061H   24168.49808634  .00000211  00000+0  68247-4 0  9995
2 42962  86.3966 330.6085 0001780  91.3734 268.7665 14.34218247350106
IRIDIUM 139             
1 42963U 17061J   24168.50443043  .00000197  00000+0  63144-4 0  9991
2 42963  86.3968 330.6559 0002065 102.1053 258.0374 14.34216304350119
IRIDIUM 125             
1 42964U 17061K   24168.49174257  .00000177  00000+0  55966-4 0  9999
2 42964  86.3970 330.7090 0001738  99.8657 260.2735 14.34217020350125
IRIDIUM 135             
1 43070U 17083A   24168.53563980  .00000148  00000+0  45684-4 0  9996
2 43070  86.3964 267.3395 0002572  91.2036 268.9455 14.34216828339423
IRIDIUM 138             
1 43071U 17083B   24168.35170348  .00000465  00000+0  15907-3 0  9995
2 43071  86.3953 267.1338 0001879  96.2461 263.8949 14.34218660339386
